#cP2019  4 13  0  0  0.00000000      96   u+U IGb08 FIT  WHU
## 2048 518400.00000000   900.00000000 58586     0.000000000
+  108   G01G02G03G04G05G06G07G09G10G11G12G13G14G15G16G17G18
+        G19G20G21G23G24G25G26G27G28G29G30G31G32R01R02R03R04
+        R05R07R08R09R10R11R13R14R15R16R17R18R19R20R21R22R23
+        R24E01E02E03E04E05E07E08E09E11E12E14E18E19E21E24E25
+        E26E27E30E31E33E36C01C02C03C04C05C06C07C08C09C10C11
+        C12C13C14C16C18C19C21C22C23C25C27C28C29C30C32C33C34
+        C36C37J01J02J03J07  0  0  0  0  0  0  0  0  0  0  0
+          0  0  0  0  0  0  0  0  0  0  0  0  0  0  0  0  0
+          0  0  0  0  0  0  0  0  0  0  0  0  0  0  0  0  0
+          0  0  0  0  0  0  0  0  0  0  0  0  0  0  0  0  0
++         3  3  3  4  3  3  3  4  3  3  3  4  3  4  3  4  3
++         3  3  4  4  3  3  3  5  3  3  3  4  4  4  3  3  3
++         3  4  3  3  3  3  3  3  3  3  4  3  4  4  4  4  3
++         3  9  9  9  9  9  9  9  9  9  9  0  0  9  9  9  9
++         9  9  9  9  9  9 10  9  9 10 10  9  9  9  9 10 10
++         9 10  9  9 10  0 10  0 10 10 10 10 10 10  0  0 10
++         0  0 10  8  9  0  0  0  0  0  0  0  0  0  0  0  0
++         0  0  0  0  0  0  0  0  0  0  0  0  0  0  0  0  0
++         0  0  0  0  0  0  0  0  0  0  0  0  0  0  0  0  0
++         0  0  0  0  0  0  0  0  0  0  0  0  0  0  0  0  0
%c M  cc GPS ccc cccc cccc cccc cccc ccccc ccccc ccccc ccccc
%c cc cc ccc ccc cccc cccc cccc cccc ccccc ccccc ccccc ccccc
%f  1.2500000  1.025000000  0.00000000000  0.000000000000000
%f  0.0000000  0.000000000  0.00000000000  0.000000000000000
%i    0    0    0    0      0      0      0      0         0
%i    0    0    0    0      0      0      0      0         0
/* GNSS RESEARCH CENTER, WUHAN UNIVERSITY (WHU), P. R. CHINA
/* POSITION AND NAVIGATION DATA ANALYST (PANDA) SOFTWARE    
/* PCV:IGS08_2046 OL/AL:FES2004  NONE     NN ORB:CoM CLK:CoN
/*
*  2019  4 13  3 15  0.00000000
PG01  14599.585020  13418.810002 -18001.477033   -200.634698
PG02   9491.254798 -14535.892789  20667.348813   -187.648141
PG03  12457.594081  23453.683337   1539.849229    188.174589
PG04  18339.753006  -2534.681640  19058.371542    148.218068
PG05   1150.328798 -21579.301594  15186.198808      1.141294
PG06  21458.347908  -7754.381675  13670.251735    232.131685
PG07  24726.655630   7474.803743   7407.400671     -3.749982
PG09  15669.758053   3514.155160  21115.409026    429.740488
PG10 -15659.400992   1768.994371 -21344.209578     74.237700
PG11   9123.197446  14089.741343 -21094.048391   -627.527993
PG12 -10307.732918 -24570.988738    626.009425    251.768801
PG13  11000.415565 -22300.405422  -9388.026514    -68.008920
PG14 -18773.496356  17906.599287  -4894.798891    -84.692790
PG15  -1776.790244 -21258.997869 -15835.736406   -318.667556
PG16  -1866.869987  21950.315029  14320.345332    -32.256375
PG17  19721.790514 -11647.557381 -12965.466222     38.216905
PG18   4354.059910  15481.547628 -21642.441867     43.685747
PG19  19655.223787 -16906.626816  -6279.951152   -331.304031
PG20 -19446.417247  -7228.330769 -16768.395897    523.932924
PG21 -26082.902058  -3301.220218   3972.718523   -213.509194
PG23   8257.151282  14778.019297  20703.433931   -190.414131
PG24 -11067.228103 -14560.710576 -19521.286385    -64.690462
PG25 -16772.813565 -17325.046963  11211.134069   -744.929184
PG26  -8865.084220  14494.382698  20351.392024    174.546590
PG27 -11124.268700  23270.420746  -5726.794213   -107.198154
PG28  15213.307040    381.542822 -21150.996684    767.405194
PG29 -11571.983140  -8992.192026  22122.961793    226.790100
PG30  26322.253652     43.549106  -4211.138931    -85.524315
PG31 -20978.078745   8027.476307  14511.801944     45.454183
PG32 -19148.892220  14587.387861 -11038.892216   -135.207703
PR01   6777.037388 -20771.764644  13155.260674     42.252466
PR02  -2294.030937 -24480.378883  -6847.536560    363.435502
PR03  -9257.541656 -12284.255902 -20318.601778     -6.379734
PR04 -10679.571007   7650.996378 -21841.839467    302.253256
PR05  -5998.330398  22134.747386 -11134.837518     26.044371
PR07   9423.144510  11686.934684  20649.982367    -18.174145
PR08  10803.117492  -6840.760045  22128.308006     18.256706
PR09  13428.208170  16568.317946  14054.543438     64.170784
PR10  21666.325808  13520.451692   -793.486396     47.522472
PR11  18729.571230   2004.190494 -17215.074178    -62.774504
PR13 -12320.498657 -16124.128421 -15477.777131    -22.385609
PR14 -21763.105314 -13267.934963    850.929660     37.880639
PR15 -19089.854370  -2725.091712  16714.655115    101.297459
PR16  -5361.997488   9652.404515  22964.809265     10.254769
PR17 -15359.222860  -2430.682169  20239.795105    219.837142
PR18 -22990.678453   8392.630899   7084.321384    -10.548320
PR19 -18636.333532  14257.272715  -9993.521683    -25.188969
PR20  -1721.067589  12055.558049 -22394.522544   -374.775209
PR21  15756.792037   1984.710887 -19952.111260    -42.082646
PR22  23217.207162  -9773.662205  -4429.341871    -14.188001
PR23  14754.526857 -14993.475027  14430.600595    221.391417
PR24   -155.144197 -11476.786876  22760.334596   -179.270384
PE01   6074.262622  22550.371161  18180.442430   -582.461229
PE02  -6116.165999 -22571.183529 -18160.162135     55.782797
PE03   3375.253037 -28912.773083  -5327.912872   -154.498412
PE04  10138.021193  18956.192643  20356.581024   -260.159379
PE05  15008.962584 -21996.061020  12931.091854     75.182177
PE07 -17803.695961   2259.605784 -23529.605269   -167.537164
PE08 -10223.210469 -18757.252508 -20477.464654   6373.275080
PE09  17655.114743  -2431.637393  23641.339846   6471.271771
PE11  28475.877980  -3289.552160  -7434.610669   5707.687409
PE12  16824.187478  10327.470013 -22055.986164   6447.400469
PE14  16917.929417 -21694.705854    -22.433663   -527.035506
PE18  -5413.481735  25699.349017 -14497.748728   -626.144565
PE19  -4681.326811  29015.716915   3504.490109     -7.005185
PE21 -12408.194869  10640.190622  24669.151781   -528.697606
PE24  23300.715639   7170.663282 -16791.599673   6135.565693
PE25  12457.777406 -10596.285177 -24673.554883   1836.394193
PE26 -23190.667900  14609.493756 -11163.680684   4688.785064
PE27 -23425.294259  -7458.435924  16485.246949    491.183433
PE30 -20711.681976 -21130.472174  -1032.425947   4955.807457
PE31  20675.122100  21142.457476   1353.864141    858.716341
PE33  -4184.597649  17497.080684 -23491.614162   -470.576316
PE36  23075.663296 -14753.584816  11251.854614    725.003718
PC01 -32322.884468  27077.040304    633.903026    452.366148
PC02   4362.755421  41899.298036  -1187.871707    223.898377
PC03 -14738.458359  39472.436357   -317.038021    119.214146
PC04 -39653.852977  14363.835840    -92.492593   -149.785376
PC05  21952.145546  35964.994221  -1249.879430   -231.796820
PC06 -19645.325504  37067.155172   -573.291450    672.673116
PC07  -7903.271973  28753.858878  30085.826261   -297.023000
PC08 -22498.141221  19630.756546 -29797.066376    144.658235
PC09  -9599.866333  38165.619754  14872.277694    681.636286
PC10   4810.048766  35609.248717  22494.195470   -658.859303
PC11   5711.053935  14715.468324 -22962.408822    -98.839925
PC12 -19239.553049  19580.960554  -5170.188398    573.298621
PC13  -5771.296516  23455.077826 -34537.097581   -649.616333
PC14   3044.212481  27653.370655  -1776.234956    685.019812
PC16 -16157.711661  38632.428735   3996.151016   -542.836283
PC18   4566.063771  31097.629438  28260.596915    -36.103255
PC19 -13965.368906 -18376.415606 -15644.000977     81.988603
PC21  -8571.836976  20667.013413 -16665.432376    451.761294
PC22 -15903.601375   1686.027503 -22855.243835    311.026804
PC23  25649.908595   2293.072528 -10760.393355   -579.489419
PC25  23375.406239  13757.388489   6528.537549   -181.917092
PC27  19470.969709 -19337.538918   5134.381982     97.499384
PC28  23921.291184  -7627.044263 -12172.023394     95.793581
PC29 -14759.682774  -7924.549156  22313.553587     49.086762
PC30   2999.350129 -19895.232577  19350.731460    105.057429
PC32   8444.261344 -20736.863603  16671.072076   -637.165207
PC33  14083.869679  18344.462577  15642.525395    -86.131171
PC34  -2833.831164  19820.743982 -19426.881504    286.999833
PC36 -22979.835112 -14350.577432  -6646.542141   -265.889965
PC37  13373.928375 -11127.115805 -21803.744110    -49.188953
PJ01 -18408.193104  28639.135061 -20253.383781   -325.880812
PJ02 -26494.090512  20865.087449  30056.483615      1.366837
PJ03 -33260.106819  25578.865165   9252.933130     -0.314978
PJ07 -25356.337457  33678.046818    -28.231722     -0.041438
EOF
